{
  "type": "FeatureCollection",
  "features": [
    {
      "type": "Feature",
      "properties": {
        "norad_id": 35445,
        "name": "COSMOS 2251 DEB",
        "group": "cosmos-2251-debris",
        "lat": 51.55372226090878,
        "lon": -57.8601673372709,
        "alt_km": 622.655934071332,
        "timestamp": "2025-12-22T16:55:17.860972+00:00",
        "meta_object_name": "COSMOS 2251 DEB",
        "meta_object_id": "1993-036AKP",
        "meta_epoch": "2025-12-20T02:09:32.474016",
        "meta_mean_motion": 14.59298517,
        "meta_eccentricity": 0.0143911,
        "meta_inclination": 74.0379,
        "meta_ra_of_asc_node": 285.9917,
        "meta_arg_of_pericenter": 11.2111,
        "meta_mean_anomaly": 349.2201,
        "meta_ephemeris_type": 0,
        "meta_classification_type": "U",
        "meta_norad_cat_id": 35445,
        "meta_element_set_no": 999,
        "meta_rev_at_epoch": 87436,
        "meta_bstar": 0.001392614,
        "meta_mean_motion_dot": 7.582e-05,
        "meta_mean_motion_ddot": 0,
        "tle_line1": "1 35445U 93036AKP 25354.08995919  .00007582  00000+0  13926-2 0  9995",
        "tle_line2": "2 35445  74.0379 285.9917 0143911  11.2111 349.2201 14.59298517874360"
      },
      "geometry": {
        "type": "Point",
        "coordinates": [
          -57.8601673372709,
          51.55372226090878
        ]
      }
    },
    {
      "type": "Feature",
      "properties": {
        "norad_id": 35446,
        "name": "COSMOS 2251 DEB",
        "group": "cosmos-2251-debris",
        "lat": -69.3133193897179,
        "lon": -109.90492601681039,
        "alt_km": 752.2085210490286,
        "timestamp": "2025-12-22T16:55:17.860982+00:00",
        "meta_object_name": "COSMOS 2251 DEB",
        "meta_object_id": "1993-036AKQ",
        "meta_epoch": "2025-12-21T06:36:42.821568",
        "meta_mean_motion": 14.54637273,
        "meta_eccentricity": 0.007464,
        "meta_inclination": 74.0475,
        "meta_ra_of_asc_node": 302.0417,
        "meta_arg_of_pericenter": 57.7922,
        "meta_mean_anomaly": 303.0449,
        "meta_ephemeris_type": 0,
        "meta_classification_type": "U",
        "meta_norad_cat_id": 35446,
        "meta_element_set_no": 999,
        "meta_rev_at_epoch": 88132,
        "meta_bstar": 9.8268e-05,
        "meta_mean_motion_dot": 4.06e-06,
        "meta_mean_motion_ddot": 0,
        "tle_line1": "1 35446U 93036AKQ 25355.27549562  .00000406  00000+0  98268-4 0  9999",
        "tle_line2": "2 35446  74.0475 302.0417 0074640  57.7922 303.0449 14.54637273881328"
      },
      "geometry": {
        "type": "Point",
        "coordinates": [
          -109.90492601681039,
          -69.3133193897179
        ]
      }
    },
    {
      "type": "Feature",
      "properties": {
        "norad_id": 35448,
        "name": "COSMOS 2251 DEB",
        "group": "cosmos-2251-debris",
        "lat": 46.2508180614481,
        "lon": -127.03920598409293,
        "alt_km": 711.5823698030372,
        "timestamp": "2025-12-22T16:55:17.860993+00:00",
        "meta_object_name": "COSMOS 2251 DEB",
        "meta_object_id": "1993-036AKS",
        "meta_epoch": "2025-12-17T15:48:08.057376",
        "meta_mean_motion": 14.54306329,
        "meta_eccentricity": 0.00121573,
        "meta_inclination": 73.9037,
        "meta_ra_of_asc_node": 80.133,
        "meta_arg_of_pericenter": 263.1799,
        "meta_mean_anomaly": 96.798,
        "meta_ephemeris_type": 0,
        "meta_classification_type": "U",
        "meta_norad_cat_id": 35448,
        "meta_element_set_no": 999,
        "meta_rev_at_epoch": 87406,
        "meta_bstar": 0.00080210225,
        "meta_mean_motion_dot": 3.379e-05,
        "meta_mean_motion_ddot": 0,
        "tle_line1": "1 35448U 93036AKS 25351.65842659  .00003379  00000+0  80210-3 0  9991",
        "tle_line2": "2 35448  73.9037  80.1330 0012157 263.1799  96.7980 14.54306329874064"
      },
      "geometry": {
        "type": "Point",
        "coordinates": [
          -127.03920598409293,
          46.2508180614481
        ]
      }
    },
    {
      "type": "Feature",
      "properties": {
        "norad_id": 35451,
        "name": "COSMOS 2251 DEB",
        "group": "cosmos-2251-debris",
        "lat": -22.41270244359064,
        "lon": -92.04521692164695,
        "alt_km": 476.65825411876904,
        "timestamp": "2025-12-22T16:55:17.861004+00:00",
        "meta_object_name": "COSMOS 2251 DEB",
        "meta_object_id": "1993-036AKV",
        "meta_epoch": "2025-12-19T23:57:44.472096",
        "meta_mean_motion": 15.3628162,
        "meta_eccentricity": 0.0041565,
        "meta_inclination": 73.9333,
        "meta_ra_of_asc_node": 86.979,
        "meta_arg_of_pericenter": 332.0017,
        "meta_mean_anomaly": 27.8952,
        "meta_ephemeris_type": 0,
        "meta_classification_type": "U",
        "meta_norad_cat_id": 35451,
        "meta_element_set_no": 999,
        "meta_rev_at_epoch": 67517,
        "meta_bstar": 0.0009808021,
        "meta_mean_motion_dot": 0.00035831,
        "meta_mean_motion_ddot": 0,
        "tle_line1": "1 35451U 93036AKV 25353.99843139  .00035831  00000+0  98080-3 0  9990",
        "tle_line2": "2 35451  73.9333  86.9790 0041565 332.0017  27.8952 15.36281620675177"
      },
      "geometry": {
        "type": "Point",
        "coordinates": [
          -92.04521692164695,
          -22.41270244359064
        ]
      }
    },
    {
      "type": "Feature",
      "properties": {
        "norad_id": 35453,
        "name": "COSMOS 2251 DEB",
        "group": "cosmos-2251-debris",
        "lat": -38.19070955213803,
        "lon": -11.045149995404172,
        "alt_km": 818.6105765879165,
        "timestamp": "2025-12-22T16:55:17.861014+00:00",
        "meta_object_name": "COSMOS 2251 DEB",
        "meta_object_id": "1993-036AKX",
        "meta_epoch": "2025-12-16T19:11:22.117056",
        "meta_mean_motion": 14.38003213,
        "meta_eccentricity": 0.00669431,
        "meta_inclination": 74.0096,
        "meta_ra_of_asc_node": 12.8823,
        "meta_arg_of_pericenter": 145.8531,
        "meta_mean_anomaly": 214.6957,
        "meta_ephemeris_type": 0,
        "meta_classification_type": "U",
        "meta_norad_cat_id": 35453,
        "meta_element_set_no": 999,
        "meta_rev_at_epoch": 86277,
        "meta_bstar": 0.00051941791,
        "meta_mean_motion_dot": 1.586e-05,
        "meta_mean_motion_ddot": 0,
        "tle_line1": "1 35453U 93036AKX 25350.79956154  .00001586  00000+0  51942-3 0  9995",
        "tle_line2": "2 35453  74.0096  12.8823 0066943 145.8531 214.6957 14.38003213862776"
      },
      "geometry": {
        "type": "Point",
        "coordinates": [
          -11.045149995404172,
          -38.19070955213803
        ]
      }
    },
    {
      "type": "Feature",
      "properties": {
        "norad_id": 35455,
        "name": "COSMOS 2251 DEB",
        "group": "cosmos-2251-debris",
        "lat": -41.083966677327645,
        "lon": 110.55410112513934,
        "alt_km": 797.113014715379,
        "timestamp": "2025-12-22T16:55:17.861025+00:00",
        "meta_object_name": "COSMOS 2251 DEB",
        "meta_object_id": "1993-036AKZ",
        "meta_epoch": "2025-12-20T19:10:19.793280",
        "meta_mean_motion": 14.49490073,
        "meta_eccentricity": 0.00996755,
        "meta_inclination": 74.029,
        "meta_ra_of_asc_node": 279.6724,
        "meta_arg_of_pericenter": 21.2905,
        "meta_mean_anomaly": 339.2356,
        "meta_ephemeris_type": 0,
        "meta_classification_type": "U",
        "meta_norad_cat_id": 35455,
        "meta_element_set_no": 999,
        "meta_rev_at_epoch": 86660,
        "meta_bstar": 0.00090539181,
        "meta_mean_motion_dot": 3.669e-05,
        "meta_mean_motion_ddot": 0,
        "tle_line1": "1 35455U 93036AKZ 25354.79884020  .00003669  00000+0  90539-3 0  9992",
        "tle_line2": "2 35455  74.0290 279.6724 0099675  21.2905 339.2356 14.49490073866606"
      },
      "geometry": {
        "type": "Point",
        "coordinates": [
          110.55410112513934,
          -41.083966677327645
        ]
      }
    },
    {
      "type": "Feature",
      "properties": {
        "norad_id": 35456,
        "name": "COSMOS 2251 DEB",
        "group": "cosmos-2251-debris",
        "lat": -40.70824545087094,
        "lon": -67.58855827783864,
        "alt_km": 662.4180450205722,
        "timestamp": "2025-12-22T16:55:17.861035+00:00",
        "meta_object_name": "COSMOS 2251 DEB",
        "meta_object_id": "1993-036ALA",
        "meta_epoch": "2025-12-16T14:29:43.534176",
        "meta_mean_motion": 14.69500166,
        "meta_eccentricity": 0.0066538,
        "meta_inclination": 73.9503,
        "meta_ra_of_asc_node": 109.9489,
        "meta_arg_of_pericenter": 318.8063,
        "meta_mean_anomaly": 40.8095,
        "meta_ephemeris_type": 0,
        "meta_classification_type": "U",
        "meta_norad_cat_id": 35456,
        "meta_element_set_no": 999,
        "meta_rev_at_epoch": 65932,
        "meta_bstar": 0.0013258,
        "meta_mean_motion_dot": 8.108e-05,
        "meta_mean_motion_ddot": 0,
        "tle_line1": "1 35456U 93036ALA 25350.60397609  .00008108  00000+0  13258-2 0  9996",
        "tle_line2": "2 35456  73.9503 109.9489 0066538 318.8063  40.8095 14.69500166659328"
      },
      "geometry": {
        "type": "Point",
        "coordinates": [
          -67.58855827783864,
          -40.70824545087094
        ]
      }
    }
  ]
}